start=new Date('2021-09-28T00:00:00.000Z').valueOf();
sats=[{"NORAD_CAT_ID":"48641","MEAN_MOTION":"15.06392121","REF_FRAME":"TEME","MEAN_MOTION_DOT":"-0.00000964","OBJECT_NAME":"STARLINK-2754","EPHEMERIS_TYPE":"0","DECAY_DATE":null,"ECCENTRICITY":"0.00015910","TIME_SYSTEM":"UTC","SEMIMAJOR_AXIS":"6925.373","EPOCH":"2021-09-27T21:01:18.916032","MEAN_ELEMENT_THEORY":"SGP4","TLE_LINE2":"2 48641  53.0552 211.1918 0001591  72.5795 287.5368 15.06392121 18962","BSTAR":"-0.00004585900000","ARG_OF_PERICENTER":"72.5795","LAUNCH_DATE":"2021-05-26","TLE_LINE1":"1 48641U 21044D   21270.87591338 -.00000964  00000-0 -45859-4 0  9996","RA_OF_ASC_NODE":"211.1918","OBJECT_TYPE":"PAYLOAD","SITE":"AFETR","APOAPSIS":"548.340","PERIAPSIS":"546.136","CLASSIFICATION_TYPE":"U","GP_ID":"185669221","CENTER_NAME":"EARTH","FILE":"3131463","MEAN_MOTION_DDOT":"0.0000000000000","REV_AT_EPOCH":"1896","MEAN_ANOMALY":"287.5368","RCS_SIZE":"LARGE","INCLINATION":"53.0552","ELEMENT_SET_NO":"999","OBJECT_ID":"2021-044D","PERIOD":"95.593","COUNTRY_CODE":"US"},{"APOAPSIS":"548.687","PERIAPSIS":"545.734","CLASSIFICATION_TYPE":"U","OBJECT_TYPE":"PAYLOAD","TLE_LINE1":"1 48642U 21044E   21270.82335485  .00000400  00000-0  45758-4 0  9992","RA_OF_ASC_NODE":"211.4233","SITE":"AFETR","GP_ID":"185669868","MEAN_MOTION_DDOT":"0.0000000000000","REV_AT_EPOCH":"1895","MEAN_ANOMALY":"291.6212","CENTER_NAME":"EARTH","FILE":"3131463","ELEMENT_SET_NO":"999","OBJECT_ID":"2021-044E","COUNTRY_CODE":"US","PERIOD":"95.592","RCS_SIZE":"LARGE","INCLINATION":"53.0554","NORAD_CAT_ID":"48642","MEAN_MOTION":"15.06400943","REF_FRAME":"TEME","OBJECT_NAME":"STARLINK-2646","EPHEMERIS_TYPE":"0","DECAY_DATE":null,"TIME_SYSTEM":"UTC","ECCENTRICITY":"0.00021320","MEAN_MOTION_DOT":"0.00000400","TLE_LINE2":"2 48642  53.0554 211.4233 0002132  68.5004 291.6212 15.06400943 18953","MEAN_ELEMENT_THEORY":"SGP4","BSTAR":"0.00004575800000","SEMIMAJOR_AXIS":"6925.346","EPOCH":"2021-09-27T19:45:37.859040","ARG_OF_PERICENTER":"68.5004","LAUNCH_DATE":"2021-05-26"},{"EPHEMERIS_TYPE":"0","TIME_SYSTEM":"UTC","DECAY_DATE":null,"ECCENTRICITY":"0.00017610","OBJECT_NAME":"STARLINK-2704","MEAN_MOTION_DOT":"0.00002082","NORAD_CAT_ID":"48643","MEAN_MOTION":"15.06395026","REF_FRAME":"TEME","LAUNCH_DATE":"2021-05-26","ARG_OF_PERICENTER":"63.2639","TLE_LINE2":"2 48643  53.0551 212.6961 0001761  63.2639 296.8530 15.06395026 18916","MEAN_ELEMENT_THEORY":"SGP4","BSTAR":"0.00015868000000","EPOCH":"2021-09-27T12:58:19.827264","SEMIMAJOR_AXIS":"6925.364","GP_ID":"185636096","APOAPSIS":"548.448","CLASSIFICATION_TYPE":"U","PERIAPSIS":"546.009","SITE":"AFETR","TLE_LINE1":"1 48643U 21044F   21270.54050726  .00002082  00000-0  15868-3 0  9990","RA_OF_ASC_NODE":"212.6961","OBJECT_TYPE":"PAYLOAD","PERIOD":"95.592","COUNTRY_CODE":"US","ELEMENT_SET_NO":"999","OBJECT_ID":"2021-044F","INCLINATION":"53.0551","RCS_SIZE":"LARGE","MEAN_ANOMALY":"296.8530","REV_AT_EPOCH":"1891","MEAN_MOTION_DDOT":"0.0000000000000","FILE":"3130990","CENTER_NAME":"EARTH"},{"TLE_LINE2":"2 48644  53.0563 211.2203 0001730  70.6497 289.4678 15.06394626 18965","MEAN_ELEMENT_THEORY":"SGP4","BSTAR":"0.00007342700000","SEMIMAJOR_AXIS":"6925.365","EPOCH":"2021-09-27T20:50:41.485344","ARG_OF_PERICENTER":"70.6497","LAUNCH_DATE":"2021-05-26","REF_FRAME":"TEME","NORAD_CAT_ID":"48644","MEAN_MOTION":"15.06394626","OBJECT_NAME":"STARLINK-2695","DECAY_DATE":null,"ECCENTRICITY":"0.00017300","TIME_SYSTEM":"UTC","EPHEMERIS_TYPE":"0","MEAN_MOTION_DOT":"0.00000812","MEAN_MOTION_DDOT":"0.0000000000000","MEAN_ANOMALY":"289.4678","REV_AT_EPOCH":"1896","CENTER_NAME":"EARTH","FILE":"3131463","OBJECT_ID":"2021-044G","ELEMENT_SET_NO":"999","PERIOD":"95.592","COUNTRY_CODE":"US","RCS_SIZE":"LARGE","INCLINATION":"53.0563","CLASSIFICATION_TYPE":"U","PERIAPSIS":"546.032","APOAPSIS":"548.428","OBJECT_TYPE":"PAYLOAD","TLE_LINE1":"1 48644U 21044G   21270.86853571  .00000812  00000-0  73427-4 0  9990","RA_OF_ASC_NODE":"211.2203","SITE":"AFETR","GP_ID":"185669437"},{"MEAN_MOTION_DOT":"0.00000060","EPHEMERIS_TYPE":"0","TIME_SYSTEM":"UTC","DECAY_DATE":null,"ECCENTRICITY":"0.00016480","OBJECT_NAME":"STARLINK-2733","NORAD_CAT_ID":"48645","MEAN_MOTION":"15.06396709","REF_FRAME":"TEME","LAUNCH_DATE":"2021-05-26","ARG_OF_PERICENTER":"67.3308","EPOCH":"2021-09-27T20:45:22.836960","SEMIMAJOR_AXIS":"6925.359","BSTAR":"0.00002290900000","TLE_LINE2":"2 48645  53.0544 211.2363 0001648  67.3308 292.7855 15.06396709 18962","MEAN_ELEMENT_THEORY":"SGP4","GP_ID":"185669546","SITE":"AFETR","RA_OF_ASC_NODE":"211.2363","TLE_LINE1":"1 48645U 21044H   21270.86484765  .00000060  00000-0  22909-4 0  9990","OBJECT_TYPE":"PAYLOAD","APOAPSIS":"548.365","CLASSIFICATION_TYPE":"U","PERIAPSIS":"546.082","INCLINATION":"53.0544","RCS_SIZE":"LARGE","COUNTRY_CODE":"US","PERIOD":"95.592","ELEMENT_SET_NO":"999","OBJECT_ID":"2021-044H","FILE":"3131463","CENTER_NAME":"EARTH","MEAN_ANOMALY":"292.7855","REV_AT_EPOCH":"1896","MEAN_MOTION_DDOT":"0.0000000000000"},{"MEAN_MOTION_DOT":"0.00001209","OBJECT_NAME":"STARLINK-2732","EPHEMERIS_TYPE":"0","DECAY_DATE":null,"TIME_SYSTEM":"UTC","ECCENTRICITY":"0.00016220","MEAN_MOTION":"15.06396692","NORAD_CAT_ID":"48646","REF_FRAME":"TEME","ARG_OF_PERICENTER":"54.7173","LAUNCH_DATE":"2021-05-26","SEMIMAJOR_AXIS":"6925.359","EPOCH":"2021-09-27T20:40:04.426176","TLE_LINE2":"2 48646  53.0546 211.2546 0001622  54.7173 305.3967 15.06396692 18966","BSTAR":"0.00010009000000","MEAN_ELEMENT_THEORY":"SGP4","GP_ID":"185669761","TLE_LINE1":"1 48646U 21044J   21270.86116234  .00001209  00000-0  10009-3 0  9997","RA_OF_ASC_NODE":"211.2546","OBJECT_TYPE":"PAYLOAD","SITE":"AFETR","APOAPSIS":"548.347","CLASSIFICATION_TYPE":"U","PERIAPSIS":"546.100","RCS_SIZE":"LARGE","INCLINATION":"53.0546","OBJECT_ID":"2021-044J","ELEMENT_SET_NO":"999","PERIOD":"95.592","COUNTRY_CODE":"US","CENTER_NAME":"EARTH","FILE":"3131463","MEAN_MOTION_DDOT":"0.0000000000000","REV_AT_EPOCH":"1896","MEAN_ANOMALY":"305.3967"},{"RCS_SIZE":"LARGE","INCLINATION":"53.0557","ELEMENT_SET_NO":"999","OBJECT_ID":"2021-044K","PERIOD":"95.592","COUNTRY_CODE":"US","CENTER_NAME":"EARTH","FILE":"3131463","MEAN_MOTION_DDOT":"0.0000000000000","MEAN_ANOMALY":"292.7307","REV_AT_EPOCH":"1896","GP_ID":"185669651","TLE_LINE1":"1 48647U 21044K   21270.85747879  .00000353  00000-0  42616-4 0  9991","OBJECT_TYPE":"PAYLOAD","RA_OF_ASC_NODE":"211.2775","SITE":"AFETR","PERIAPSIS":"546.155","CLASSIFICATION_TYPE":"U","APOAPSIS":"548.273","ARG_OF_PERICENTER":"67.3844","LAUNCH_DATE":"2021-05-26","SEMIMAJOR_AXIS":"6925.349","EPOCH":"2021-09-27T20:34:46.167456","TLE_LINE2":"2 48647  53.0557 211.2775 0001529  67.3844 292.7307 15.06399824 18961","BSTAR":"0.00004261600000","MEAN_ELEMENT_THEORY":"SGP4","MEAN_MOTION_DOT":"0.00000353","OBJECT_NAME":"STARLINK-2691","DECAY_DATE":null,"TIME_SYSTEM":"UTC","ECCENTRICITY":"0.00015290","EPHEMERIS_TYPE":"0","REF_FRAME":"TEME","NORAD_CAT_ID":"48647","MEAN_MOTION":"15.06399824"},{"MEAN_ANOMALY":"295.5407","REV_AT_EPOCH":"1896","MEAN_MOTION_DDOT":"0.0000000000000","FILE":"3131463","CENTER_NAME":"EARTH","COUNTRY_CODE":"US","PERIOD":"95.593","ELEMENT_SET_NO":"999","OBJECT_ID":"2021-044L","INCLINATION":"53.0553","RCS_SIZE":"LARGE","CLASSIFICATION_TYPE":"U","PERIAPSIS":"546.099","APOAPSIS":"548.415","SITE":"AFETR","TLE_LINE1":"1 48648U 21044L   21270.85654169 -.00000339  00000-0 -38466-5 0  9996","OBJECT_TYPE":"PAYLOAD","RA_OF_ASC_NODE":"211.2791","GP_ID":"185669114","BSTAR":"-0.00000384660000","TLE_LINE2":"2 48648  53.0553 211.2791 0001672  64.5755 295.5407 15.06385764 18965","MEAN_ELEMENT_THEORY":"SGP4","EPOCH":"2021-09-27T20:33:25.202016","SEMIMAJOR_AXIS":"6925.392","LAUNCH_DATE":"2021-05-26","ARG_OF_PERICENTER":"64.5755","REF_FRAME":"TEME","NORAD_CAT_ID":"48648","MEAN_MOTION":"15.06385764","TIME_SYSTEM":"UTC","DECAY_DATE":null,"ECCENTRICITY":"0.00016720","EPHEMERIS_TYPE":"0","OBJECT_NAME":"STARLINK-2521","MEAN_MOTION_DOT":"-0.00000339"},{"OBJECT_NAME":"STARLINK-2673","EPHEMERIS_TYPE":"0","DECAY_DATE":null,"ECCENTRICITY":"0.00016550","TIME_SYSTEM":"UTC","MEAN_MOTION_DOT":"0.00001738","MEAN_MOTION":"15.06399958","NORAD_CAT_ID":"48649","REF_FRAME":"TEME","ARG_OF_PERICENTER":"66.8385","LAUNCH_DATE":"2021-05-26","BSTAR":"0.00013552000000","TLE_LINE2":"2 48649  53.0503 211.3153 0001655  66.8385 293.2778 15.06399958 18954","MEAN_ELEMENT_THEORY":"SGP4","SEMIMAJOR_AXIS":"6925.349","EPOCH":"2021-09-27T20:29:27.036096","GP_ID":"185669222","APOAPSIS":"548.360","CLASSIFICATION_TYPE":"U","PERIAPSIS":"546.068","TLE_LINE1":"1 48649U 21044M   21270.85378514  .00001738  00000-0  13552-3 0  9993","OBJECT_TYPE":"PAYLOAD","RA_OF_ASC_NODE":"211.3153","SITE":"AFETR","OBJECT_ID":"2021-044M","ELEMENT_SET_NO":"999","PERIOD":"95.592","COUNTRY_CODE":"US","RCS_SIZE":"LARGE","INCLINATION":"53.0503","MEAN_MOTION_DDOT":"0.0000000000000","MEAN_ANOMALY":"293.2778","REV_AT_EPOCH":"1895","CENTER_NAME":"EARTH","FILE":"3131463"},{"TLE_LINE2":"2 48650  53.0550 213.9887 0001521  48.4447 311.6672 15.06398519 18867","MEAN_ELEMENT_THEORY":"SGP4","BSTAR":"0.00016144000000","SEMIMAJOR_AXIS":"6925.353","EPOCH":"2021-09-27T06:04:17.676768","ARG_OF_PERICENTER":"48.4447","LAUNCH_DATE":"2021-05-26","NORAD_CAT_ID":"48650","MEAN_MOTION":"15.06398519","REF_FRAME":"TEME","OBJECT_NAME":"STARLINK-2672","EPHEMERIS_TYPE":"0","DECAY_DATE":null,"TIME_SYSTEM":"UTC","ECCENTRICITY":"0.00015210","MEAN_MOTION_DOT":"0.00002124","MEAN_MOTION_DDOT":"0.0000000000000","REV_AT_EPOCH":"1886","MEAN_ANOMALY":"311.6672","CENTER_NAME":"EARTH","FILE":"3130990","ELEMENT_SET_NO":"999","OBJECT_ID":"2021-044N","COUNTRY_CODE":"US","PERIOD":"95.592","RCS_SIZE":"LARGE","INCLINATION":"53.0550","APOAPSIS":"548.271","CLASSIFICATION_TYPE":"U","PERIAPSIS":"546.165","RA_OF_ASC_NODE":"213.9887","TLE_LINE1":"1 48650U 21044N   21270.25298237  .00002124  00000-0  16144-3 0  9992","OBJECT_TYPE":"PAYLOAD","SITE":"AFETR","GP_ID":"185636634"}];
